COSMOS 2433 (720)       
1 32275U 07052A   22042.69414481 -.00000064  00000+0  00000+0 0  9999
2 32275  66.0837   8.8420 0004669 270.2818 352.1094  2.13104071111282
COSMOS 2432 (719)       
1 32276U 07052B   22042.76232306 -.00000064  00000+0  00000+0 0  9992
2 32276  66.0965   8.9385 0012017 321.1955 302.1322  2.13103400111284
COSMOS 2434 (721)       
1 32393U 07065A   22042.26809253  .00000099  00000+0  00000+0 0  9999
2 32393  64.4067 245.7364 0004946  73.0741 111.5667  2.13103053109987
COSMOS 2436 (723)       
1 32395U 07065C   22042.70061178  .00000100  00000+0  00000+0 0  9999
2 32395  64.4160 245.7778 0016620   6.8644 285.5428  2.13102891109920
COSMOS 2456 (730)       
1 36111U 09070A   22042.61960743 -.00000031  00000+0  00000+0 0  9997
2 36111  64.3224 125.3752 0003236 306.0773 315.5712  2.13099111 94655
COSMOS 2457 (733)       
1 36112U 09070B   22042.59767900 -.00000031  00000+0  00000+0 0  9995
2 36112  64.3053 125.2553 0005587 167.2348 203.8837  2.13101284 94663
COSMOS 2461 (735)       
1 36401U 10007B   22043.00604876 -.00000066  00000+0  00000+0 0  9995
2 36401  65.9710   7.6876 0020965 359.8200 359.3963  2.13103683 93015
COSMOS 2460 (732)       
1 36402U 10007C   22042.01871527 -.00000066  00000+0  00000+0 0  9995
2 36402  65.9577   7.6732 0002466 299.1284 329.8623  2.13106386 92996
COSMOS 2464 (736)       
1 37139U 10041C   22043.15044200  .00000100  00000+0  00000+0 0  9995
2 37139  64.0067 244.8436 0030337  13.8737 346.8430  2.13100762 89089
COSMOS 2476 (744)       
1 37867U 11064A   22042.75729855 -.00000030  00000+0  00000+0 0  9993
2 37867  64.6137 126.6777 0021512 235.2517  36.4388  2.13101801 80009
COSMOS 2477 (745)       
1 37868U 11064B   22042.67771829 -.00000030  00000+0  00000+0 0  9993
2 37868  64.6215 126.7442 0018864 236.0136 152.8165  2.13101584 79966
COSMOS 2475 (743)       
1 37869U 11064C   22042.35406402 -.00000033  00000+0  00000+0 0  9994
2 37869  64.6282 126.7619 0022761 254.7218 203.7171  2.13101720 79961
COSMOS 2485 (747)       
1 39155U 13019A   22042.68798477 -.00000030  00000+0  00000+0 0  9995
2 39155  64.7782 127.0807 0022069 231.0976  31.8387  2.13101722 68475
COSMOS 2492 (754)       
1 39620U 14012A   22042.77158794 -.00000067  00000+0  00000+0 0  9998
2 39620  65.8456   7.3475 0015231 319.2504  42.4114  2.13103134 61436
COSMOS 2500 (755)       
1 40001U 14032A   22043.09441009 -.00000067  00000+0  00000+0 0  9995
2 40001  65.7848   7.2062 0006649 225.7037 242.6081  2.13102402 59656
COSMOS 2501 (702K)      
1 40315U 14075A   22042.69690492  .00000099  00000+0  00000+0 0  9991
2 40315  63.7154 245.5768 0016125 206.2210 124.5284  2.13101329 56049
COSMOS 2514 (751)       
1 41330U 16008A   22042.50308071 -.00000068  00000+0  00000+0 0  9993
2 41330  65.5853   6.9493 0010537 226.6901 331.5741  2.13102728 46806
COSMOS 2516 (753)       
1 41554U 16032A   22042.14354880  .00000098  00000+0  00000+0 0  9999
2 41554  63.9399 245.8366 0011861 213.7053 328.9936  2.13105980 44403
COSMOS 2522 (752)       
1 42939U 17055A   22043.22166771  .00000100  00000+0  00000+0 0  9997
2 42939  64.1754 246.1568 0004953 246.6442 261.9893  2.13101949 34181
COSMOS 2527 (756)       
1 43508U 18053A   22042.51113626 -.00000031  00000+0  00000+0 0  9995
2 43508  64.9407 127.0606 0008147 226.7547 128.8912  2.13102507 28458
COSMOS 2529 (757)       
1 43687U 18086A   22043.08354565  .00000100  00000+0  00000+0 0  9997
2 43687  64.3894 246.4442 0007461 278.1713  80.0141  2.13102067 25482
COSMOS 2534 (758)       
1 44299U 19030A   22041.96715947  .00000097  00000+0  00000+0 0  9992
2 44299  64.4604 246.3559 0011015 298.2947  58.0850  2.13101885 21106
COSMOS 2544 (759)       
1 44850U 19088A   22042.51718719 -.00000031  00000+0  00000+0 0  9999
2 44850  64.9250 126.9160 0012216 257.2359 146.6137  2.13102318 16892
COSMOS 2545 (760)       
1 45358U 20018A   22041.50909779 -.00000068  00000+0  00000+0 0  9994
2 45358  64.9224   7.6962 0010803 258.2261 301.9186  2.13102650 14825
COSMOS 2547 (705K)      
1 46805U 20075A   22042.14512707  .00000099  00000+0  00000+0 0  9990
2 46805  64.6836 245.7369 0005238 249.7474 290.4165  2.13102903 10086
